[{"OBJECT_NAME":"LUSAT (LO-19)","OBJECT_ID":"1990-005G","EPOCH":"2026-03-09T14:54:14.260896","MEAN_MOTION":14.34087969,"ECCENTRICITY":0.001234,"INCLINATION":98.8938,"RA_OF_ASC_NODE":87.6461,"ARG_OF_PERICENTER":134.6824,"MEAN_ANOMALY":225.5367,"EPHEMERIS_TYPE":0,"CLASSIFICATION_TYPE":"U","NORAD_CAT_ID":20442,"ELEMENT_SET_NO":999,"REV_AT_EPOCH":88812,"BSTAR":8.4338e-5,"MEAN_MOTION_DOT":1.89e-6,"MEAN_MOTION_DDOT":0},{"OBJECT_NAME":"CZ-6A DEB","OBJECT_ID":"2024-140VT","EPOCH":"2026-03-09T14:52:01.921152","MEAN_MOTION":14.60446386,"ECCENTRICITY":0.0111501,"INCLINATION":89.0129,"RA_OF_ASC_NODE":282.8798,"ARG_OF_PERICENTER":226.2396,"MEAN_ANOMALY":132.9549,"EPHEMERIS_TYPE":0,"CLASSIFICATION_TYPE":"U","NORAD_CAT_ID":61354,"ELEMENT_SET_NO":999,"REV_AT_EPOCH":8056,"BSTAR":0.00058559,"MEAN_MOTION_DOT":3.114e-5,"MEAN_MOTION_DDOT":0}]
